[{"OBJECT_NAME":"STARLINK-35628","OBJECT_ID":"2025-237K","EPOCH":"2026-03-09T07:13:13.880640","MEAN_MOTION":15.30231167,"ECCENTRICITY":0.00018839,"INCLINATION":53.1613,"RA_OF_ASC_NODE":41.2399,"ARG_OF_PERICENTER":72.1118,"MEAN_ANOMALY":288.0088,"EPHEMERIS_TYPE":0,"CLASSIFICATION_TYPE":"U","NORAD_CAT_ID":66123,"ELEMENT_SET_NO":999,"REV_AT_EPOCH":2255,"BSTAR":0.0008789481,"MEAN_MOTION_DOT":0.00025788,"MEAN_MOTION_DDOT":0},{"OBJECT_NAME":"ARIANE 40 R\/B","OBJECT_ID":"1999-064C","EPOCH":"2026-03-09T18:24:37.025280","MEAN_MOTION":15.31364882,"ECCENTRICITY":0.00050095,"INCLINATION":98.1631,"RA_OF_ASC_NODE":150.8872,"ARG_OF_PERICENTER":91.4057,"MEAN_ANOMALY":268.7755,"EPHEMERIS_TYPE":0,"CLASSIFICATION_TYPE":"U","NORAD_CAT_ID":25979,"ELEMENT_SET_NO":999,"REV_AT_EPOCH":42869,"BSTAR":0.00066758353,"MEAN_MOTION_DOT":0.00020173,"MEAN_MOTION_DDOT":0}]
